STARLINK-4469
1 53657U 22105K   26090.86740913  .00946252  57786-3  74892-3 0  9998
2 53657  97.6232 359.6241 0004265 168.3604 191.7780 16.14723137198244
